ONEWEB-0130             
1 47276U 20100U   26185.87689432 -.00000174  00000+0 -51832-3 0  9993
2 47276  87.8962 347.1349 0001859  97.6762 262.4578 13.12443571266963
ONEWEB-0131             
1 47277U 20100V   26185.87350424 -.00000180  00000+0 -53477-3 0  9994
2 47277  87.8953 347.1519 0001723  98.9977 261.1347 13.12442652267000
ONEWEB-0132             
1 47278U 20100W   26185.90230622  .00000406  00000+0  10931-2 0  9992
2 47278  87.8952 347.1483 0001758  95.7711 264.3618 13.12441944266906
ONEWEB-0133             
1 47279U 20100X   26185.91910625  .00000000  00000+0 -36042-4 0  9996
2 47279  87.8964 347.1228 0001707  98.0808 262.0514 13.12441742267068
ONEWEB-0134             
1 47280U 20100Y   26185.88875126  .00000333  00000+0  88972-3 0  9996
2 47280  87.8964 347.1262 0001908 102.1852 257.9490 13.12442544267031
ONEWEB-0135             
1 47281U 20100Z   26185.70746995 -.00000430  00000+0 -12308-2 0  9998
2 47281  87.8954 347.1829 0001783 103.9299 256.2028 13.12442991267030
ONEWEB-0136             
1 47282U 20100AA  26185.87858452 -.00000040  00000+0 -14637-3 0  9994
2 47282  87.8959 347.1315 0001944 103.6850 256.4495 13.12443307266980
ONEWEB-0137             
1 47283U 20100AB  26185.91247276  .00000199  00000+0  51865-3 0  9993
2 47283  87.8963 347.1356 0001865  90.0293 270.1049 13.12441688266891
ONEWEB-0138             
1 47284U 20100AC  26185.89045007  .00000365  00000+0  97960-3 0  9990
2 47284  87.8958 347.1449 0001974 100.1408 259.9943 13.12442981266975
ONEWEB-0139             
1 47285U 20100AD  26185.70253367 -.00000367  00000+0 -10556-2 0  9990
2 47285  87.8959 347.1684 0001887  94.9161 265.2183 13.12441996267025
ONEWEB-0140             
1 47286U 20100AE  26185.88536427  .00000197  00000+0  51229-3 0  9993
2 47286  87.8962 347.1233 0001663  96.5913 263.5405 13.12443545267014
ONEWEB-0141             
1 47287U 20100AF  26185.85472550 -.00000374  00000+0 -10761-2 0  9991
2 47287  87.8961 347.1341 0001985  86.8472 273.2883 13.12442131266997
ONEWEB-0142             
1 47288U 20100AG  26185.91939360 -.00000045  00000+0 -15915-3 0  9998
2 47288  87.8955 347.1417 0002241  92.1081 268.0304 13.12442383266996
ONEWEB-0143             
1 47289U 20100AH  26185.70069617 -.00000339  00000+0 -97659-3 0  9996
2 47289  87.8955 347.1847 0001831  92.8972 267.2366 13.12442565266940
ONEWEB-0144             
1 47290U 20100AJ  26185.90061597  .00000484  00000+0  13087-2 0  9990
2 47290  87.8963 347.1199 0002172 100.3819 259.7554 13.12441698266890
ONEWEB-0145             
1 47291U 20100AK  26185.71933273 -.00000123  00000+0 -37845-3 0  9990
2 47291  87.8958 347.1822 0001901  95.1038 265.0308 13.12443341267065
ONEWEB-0146             
1 47292U 20100AL  26185.86841954 -.00000358  00000+0 -10291-2 0  9996
2 47292  87.8963 347.1457 0001467  92.2471 267.8826 13.12442908266996
ONEWEB-0147             
1 47293U 20100AM  26185.91078096  .00000282  00000+0  74916-3 0  9991
2 47293  87.8961 347.1188 0001763  99.0907 261.0421 13.12441793266891
ONEWEB-0115             
1 48042U 21025A   26185.62038031 -.00000226  00000+0 -65405-3 0  9997
2 48042  87.8975 316.7534 0001818  98.9489 261.1846 13.13471358255880
ONEWEB-0152             
1 48043U 21025B   26185.78627826 -.00000201  00000+0 -58576-3 0  9995
2 48043  87.8981 316.7182 0001773  99.8916 260.2413 13.13469445255864
ONEWEB-0153             
1 48044U 21025C   26186.29751022 -.00000014  00000+0 -72140-4 0  9995
2 48044  87.8972 316.6179 0001972  98.8018 261.3335 13.13468798255925
ONEWEB-0154             
1 48045U 21025D   26185.76088612 -.00000089  00000+0 -27908-3 0  9998
2 48045  87.8980 316.7232 0001800 104.5049 255.6280 13.13469084255817
ONEWEB-0116             
1 48046U 21025E   26185.64745658  .00002561  00000+0  69739-2 0  9998
2 48046  87.8978 316.7430 0001392  98.4219 261.7068 13.13491152255948
ONEWEB-0150             
1 48047U 21025F   26185.77612222 -.00000298  00000+0 -85068-3 0  9994
2 48047  87.8979 316.7146 0001952  93.2580 266.8772 13.13469357255850
ONEWEB-0107             
1 48048U 21025G   26185.77782784 -.00000607  00000+0 -16982-2 0  9998
2 48048  87.8986 316.7102 0002143  98.8775 261.2597 13.13463863255839
ONEWEB-0101             
1 48049U 21025H   26185.81676163  .00000401  00000+0  10640-2 0  9992
2 48049  87.8969 316.7166 0001993 103.0308 257.1044 13.13470658255813
ONEWEB-0113             
1 48050U 21025J   26186.29235428  .00000096  00000+0  22776-3 0  9996
2 48050  87.8976 316.5304 0001838  94.8304 265.3035 13.13891649255982
ONEWEB-0112             
1 48051U 21025K   26185.63053452 -.00000151  00000+0 -44879-3 0  9991
2 48051  87.8981 316.7379 0002093 104.3238 255.8123 13.13470109255885
ONEWEB-0156             
1 48052U 21025L   26185.79136706 -.00000107  00000+0 -32776-3 0  9997
2 48052  87.8980 316.7157 0002010  97.2596 262.8762 13.13471849255884
ONEWEB-0161             
1 48053U 21025M   26185.76595669 -.00000187  00000+0 -54711-3 0  9993
2 48053  87.8979 316.7217 0002071  97.4485 262.6880 13.13468470255814
