OBJECT_NAME,OBJECT_ID,EPOCH,MEAN_MOTION,ECCENTRICITY,INCLINATION,RA_OF_ASC_NODE,ARG_OF_PERICENTER,MEAN_ANOMALY,EPHEMERIS_TYPE,CLASSIFICATION_TYPE,NORAD_CAT_ID,ELEMENT_SET_NO,REV_AT_EPOCH,BSTAR,MEAN_MOTION_DOT,MEAN_MOTION_DDOT
ONEWEB-0130,2020-100U,2026-07-04T21:02:43.669248,13.12443571,.00018591,87.8962,347.1349,97.6762,262.4578,0,U,47276,999,26696,-.51832116E-3,-.174E-5,0
ONEWEB-0131,2020-100V,2026-07-04T20:57:50.766336,13.12442652,.00017237,87.8953,347.1519,98.9977,261.1347,0,U,47277,999,26700,-.53477322E-3,-.18E-5,0
ONEWEB-0132,2020-100W,2026-07-04T21:39:19.257408,13.12441944,.00017587,87.8952,347.1483,95.7711,264.3618,0,U,47278,999,26690,.10930799E-2,.406E-5,0
ONEWEB-0133,2020-100X,2026-07-04T22:03:30.780000,13.12441742,.00017075,87.8964,347.1228,98.0808,262.0514,0,U,47279,999,26706,-.36041537E-4,0,0
ONEWEB-0134,2020-100Y,2026-07-04T21:19:48.108864,13.12442544,.00019085,87.8964,347.1262,102.1852,257.9490,0,U,47280,999,26703,.88972389E-3,.333E-5,0
ONEWEB-0135,2020-100Z,2026-07-04T16:58:45.403680,13.12442991,.00017831,87.8954,347.1829,103.9299,256.2028,0,U,47281,999,26703,-.1230796E-2,-.43E-5,0
ONEWEB-0136,2020-100AA,2026-07-04T21:05:09.702528,13.12443307,.00019443,87.8959,347.1315,103.6850,256.4495,0,U,47282,999,26698,-.14636827E-3,-.4E-6,0
ONEWEB-0137,2020-100AB,2026-07-04T21:53:57.646464,13.12441688,.00018655,87.8963,347.1356,90.0293,270.1049,0,U,47283,999,26689,.51864628E-3,.199E-5,0
ONEWEB-0138,2020-100AC,2026-07-04T21:22:14.886048,13.12442981,.00019744,87.8958,347.1449,100.1408,259.9943,0,U,47284,999,26697,.97959895E-3,.365E-5,0
ONEWEB-0139,2020-100AD,2026-07-04T16:51:38.909088,13.12441996,.00018878,87.8959,347.1684,94.9161,265.2183,0,U,47285,999,26702,-.1055564E-2,-.367E-5,0
ONEWEB-0140,2020-100AE,2026-07-04T21:14:55.472928,13.12443545,.00016639,87.8962,347.1233,96.5913,263.5405,0,U,47286,999,26701,.51229393E-3,.197E-5,0
ONEWEB-0141,2020-100AF,2026-07-04T20:30:48.283200,13.12442131,.00019852,87.8961,347.1341,86.8472,273.2883,0,U,47287,999,26699,-.10760536E-2,-.374E-5,0
ONEWEB-0142,2020-100AG,2026-07-04T22:03:55.607040,13.12442383,.00022415,87.8955,347.1417,92.1081,268.0304,0,U,47288,999,26699,-.15915152E-3,-.45E-6,0
ONEWEB-0143,2020-100AH,2026-07-04T16:49:00.149088,13.12442565,.00018313,87.8955,347.1847,92.8972,267.2366,0,U,47289,999,26694,-.97659192E-3,-.339E-5,0
ONEWEB-0144,2020-100AJ,2026-07-04T21:36:53.219808,13.12441698,.00021723,87.8963,347.1199,100.3819,259.7554,0,U,47290,999,26689,.13087235E-2,.484E-5,0
ONEWEB-0145,2020-100AK,2026-07-04T17:15:50.347872,13.12443341,.00019015,87.8958,347.1822,95.1038,265.0308,0,U,47291,999,26706,-.37844751E-3,-.123E-5,0
ONEWEB-0146,2020-100AL,2026-07-04T20:50:31.448256,13.12442908,.00014674,87.8963,347.1457,92.2471,267.8826,0,U,47292,999,26699,-.10291287E-2,-.358E-5,0
ONEWEB-0147,2020-100AM,2026-07-04T21:51:31.474944,13.12441793,.00017639,87.8961,347.1188,99.0907,261.0421,0,U,47293,999,26689,.74916237E-3,.282E-5,0
ONEWEB-0115,2021-025A,2026-07-04T14:53:20.858784,13.13471358,.00018186,87.8975,316.7534,98.9489,261.1846,0,U,48042,999,25588,-.65405055E-3,-.226E-5,0
ONEWEB-0152,2021-025B,2026-07-04T18:52:14.441664,13.13469445,.00017732,87.8981,316.7182,99.8916,260.2413,0,U,48043,999,25586,-.58576085E-3,-.201E-5,0
ONEWEB-0153,2021-025C,2026-07-05T07:08:24.883008,13.13468798,.00019729,87.8972,316.6179,98.8018,261.3335,0,U,48044,999,25592,-.72140237E-4,-.14E-6,0
ONEWEB-0154,2021-025D,2026-07-04T18:15:40.560768,13.13469084,.00018009,87.8980,316.7232,104.5049,255.6280,0,U,48045,999,25581,-.27907693E-3,-.89E-6,0
ONEWEB-0116,2021-025E,2026-07-04T15:32:20.248512,13.13491152,.00013926,87.8978,316.7430,98.4219,261.7068,0,U,48046,999,25594,.69739252E-2,.2561E-4,0
ONEWEB-0150,2021-025F,2026-07-04T18:37:36.959808,13.13469357,.00019527,87.8979,316.7146,93.2580,266.8772,0,U,48047,999,25585,-.8506751E-3,-.298E-5,0
ONEWEB-0107,2021-025G,2026-07-04T18:40:04.325376,13.13463863,.00021431,87.8986,316.7102,98.8775,261.2597,0,U,48048,999,25583,-.16982014E-2,-.607E-5,0
ONEWEB-0101,2021-025H,2026-07-04T19:36:08.204832,13.13470658,.00019938,87.8969,316.7166,103.0308,257.1044,0,U,48049,999,25581,.10640386E-2,.401E-5,0
ONEWEB-0113,2021-025J,2026-07-05T07:00:59.409792,13.13891649,.00018381,87.8976,316.5304,94.8304,265.3035,0,U,48050,999,25598,.22776355E-3,.96E-6,0
ONEWEB-0112,2021-025K,2026-07-04T15:07:58.182528,13.13470109,.00020931,87.8981,316.7379,104.3238,255.8123,0,U,48051,999,25588,-.44878794E-3,-.151E-5,0
ONEWEB-0156,2021-025L,2026-07-04T18:59:34.113984,13.13471849,.00020105,87.8980,316.7157,97.2596,262.8762,0,U,48052,999,25588,-.32775728E-3,-.107E-5,0
ONEWEB-0161,2021-025M,2026-07-04T18:22:58.658016,13.13468470,.00020718,87.8979,316.7217,97.4485,262.6880,0,U,48053,999,25581,-.54710905E-3,-.187E-5,0
